[{"OBJECT_NAME":"STARLINK-34991","OBJECT_ID":"2025-194N","EPOCH":"2026-03-09T20:22:41.145312","MEAN_MOTION":15.05650191,"ECCENTRICITY":0.00024363,"INCLINATION":97.6021,"RA_OF_ASC_NODE":284.581,"ARG_OF_PERICENTER":92.4548,"MEAN_ANOMALY":267.6958,"EPHEMERIS_TYPE":0,"CLASSIFICATION_TYPE":"U","NORAD_CAT_ID":65446,"ELEMENT_SET_NO":999,"REV_AT_EPOCH":2967,"BSTAR":0.00040621797,"MEAN_MOTION_DOT":5.806e-5,"MEAN_MOTION_DDOT":0},{"OBJECT_NAME":"RAPIDEYE 4","OBJECT_ID":"2008-040E","EPOCH":"2026-03-09T22:51:05.848992","MEAN_MOTION":15.03765217,"ECCENTRICITY":0.00096509,"INCLINATION":97.4015,"RA_OF_ASC_NODE":97.7474,"ARG_OF_PERICENTER":35.5595,"MEAN_ANOMALY":324.6273,"EPHEMERIS_TYPE":0,"CLASSIFICATION_TYPE":"U","NORAD_CAT_ID":33316,"ELEMENT_SET_NO":999,"REV_AT_EPOCH":95086,"BSTAR":0.00022327721,"MEAN_MOTION_DOT":3.01e-5,"MEAN_MOTION_DDOT":0}]
